{"type": "FeatureCollection", "features": [ {"type": "Feature", "properties": {"norad_id": 30768, "name": "FENGYUN 1C DEB", "group": "fengyun-1c-debris", "lat": 78.55697644952076, "lon": 20.305112831212654, "alt_km": 711.6987870268076, "timestamp": "2025-12-05T05:43:15.388242+00:00", "meta": {"OBJECT_NAME": "FENGYUN 1C DEB", "OBJECT_ID": "1999-025AUE", "EPOCH": "2025-12-03T12:26:09.435264", "MEAN_MOTION": 14.4764738, "ECCENTRICITY": 0.00260291, "INCLINATION": 98.6191, "RA_OF_ASC_NODE": 67.0846, "ARG_OF_PERICENTER": 127.8367, "MEAN_ANOMALY": 354.974, "EPHEMERIS_TYPE": 0, "CLASSIFICATION_TYPE": "U", "NORAD_CAT_ID": 30768, "ELEMENT_SET_NO": 999, "REV_AT_EPOCH": 97737, "BSTAR": 0.0032376028, "MEAN_MOTION_DOT": 0.00011959, "MEAN_MOTION_DDOT": 0}, "tle": {"line1": "1 30768U 99025AUE 25337.51816476  .00011959  00000+0  32376-2 0  9994", "line2": "2 30768  98.6191  67.0846 0026029 127.8367 354.9740 14.47647380977373"}}, "geometry": {"type": "Point", "coordinates": [20.305112831212654, 78.55697644952076]}}, {"type": "Feature", "properties": {"norad_id": 30770, "name": "FENGYUN 1C DEB", "group": "fengyun-1c-debris", "lat": 66.32688946133372, "lon": -174.16448111848752, "alt_km": 842.4964802053601, "timestamp": "2025-12-05T05:43:15.388251+00:00", "meta": {"OBJECT_NAME": "FENGYUN 1C DEB", "OBJECT_ID": "1999-025AUG", "EPOCH": "2025-12-03T22:57:48.231072", "MEAN_MOTION": 14.15668181, "ECCENTRICITY": 0.00129924, "INCLINATION": 98.6545, "RA_OF_ASC_NODE": 344.2626, "ARG_OF_PERICENTER": 312.9007, "MEAN_ANOMALY": 111.4269, "EPHEMERIS_TYPE": 0, "CLASSIFICATION_TYPE": "U", "NORAD_CAT_ID": 30770, "ELEMENT_SET_NO": 999, "REV_AT_EPOCH": 96783, "BSTAR": 0.00050886594, "MEAN_MOTION_DOT": 9.55e-06, "MEAN_MOTION_DDOT": 0}, "tle": {"line1": "1 30770U 99025AUG 25337.95680823  .00000955  00000+0  50887-3 0  9992", "line2": "2 30770  98.6545 344.2626 0012992 312.9007 111.4269 14.15668181967836"}}, "geometry": {"type": "Point", "coordinates": [-174.16448111848752, 66.32688946133372]}}, {"type": "Feature", "properties": {"norad_id": 30771, "name": "FENGYUN 1C DEB", "group": "fengyun-1c-debris", "lat": 25.334663798928265, "lon": 138.38038862661264, "alt_km": 764.606836200187, "timestamp": "2025-12-05T05:43:15.388262+00:00", "meta": {"OBJECT_NAME": "FENGYUN 1C DEB", "OBJECT_ID": "1999-025AUH", "EPOCH": "2025-12-04T09:02:13.467264", "MEAN_MOTION": 14.4293727, "ECCENTRICITY": 0.0024018, "INCLINATION": 98.9043, "RA_OF_ASC_NODE": 313.2239, "ARG_OF_PERICENTER": 324.9661, "MEAN_ANOMALY": 34.9946, "EPHEMERIS_TYPE": 0, "CLASSIFICATION_TYPE": "U", "NORAD_CAT_ID": 30771, "ELEMENT_SET_NO": 999, "REV_AT_EPOCH": 96943, "BSTAR": 0.0067969, "MEAN_MOTION_DOT": 0.00022838, "MEAN_MOTION_DDOT": 0}, "tle": {"line1": "1 30771U 99025AUH 25338.37654476  .00022838  00000+0  67969-2 0  9997", "line2": "2 30771  98.9043 313.2239 0024018 324.9661  34.9946 14.42937270969437"}}, "geometry": {"type": "Point", "coordinates": [138.38038862661264, 25.334663798928265]}}, {"type": "Feature", "properties": {"norad_id": 30802, "name": "FENGYUN 1C DEB", "group": "fengyun-1c-debris", "lat": -29.961686598767713, "lon": -119.26058902888353, "alt_km": 800.664813642531, "timestamp": "2025-12-05T05:43:15.388272+00:00", "meta": {"OBJECT_NAME": "FENGYUN 1C DEB", "OBJECT_ID": "1999-025AUL", "EPOCH": "2025-12-04T12:03:20.083392", "MEAN_MOTION": 14.32335705, "ECCENTRICITY": 0.0018636, "INCLINATION": 98.8382, "RA_OF_ASC_NODE": 65.1354, "ARG_OF_PERICENTER": 67.678, "MEAN_ANOMALY": 309.1738, "EPHEMERIS_TYPE": 0, "CLASSIFICATION_TYPE": "U", "NORAD_CAT_ID": 30802, "ELEMENT_SET_NO": 999, "REV_AT_EPOCH": 97085, "BSTAR": 0.0043904, "MEAN_MOTION_DOT": 0.00011855, "MEAN_MOTION_DDOT": 0}, "tle": {"line1": "1 30802U 99025AUL 25338.50231578  .00011855  00000+0  43904-2 0  9991", "line2": "2 30802  98.8382  65.1354 0018636  67.6780 309.1738 14.32335705970858"}}, "geometry": {"type": "Point", "coordinates": [-119.26058902888353, -29.961686598767713]}}, {"type": "Feature", "properties": {"norad_id": 30803, "name": "FENGYUN 1C DEB", "group": "fengyun-1c-debris", "lat": 25.062642778147563, "lon": 7.826432188858181, "alt_km": 928.6004050398269, "timestamp": "2025-12-05T05:43:15.388283+00:00", "meta": {"OBJECT_NAME": "FENGYUN 1C DEB", "OBJECT_ID": "1999-025AUM", "EPOCH": "2025-12-03T00:59:31.926336", "MEAN_MOTION": 14.11169165, "ECCENTRICITY": 0.01070402, "INCLINATION": 99.2471, "RA_OF_ASC_NODE": 9.934, "ARG_OF_PERICENTER": 228.3304, "MEAN_ANOMALY": 161.536, "EPHEMERIS_TYPE": 0, "CLASSIFICATION_TYPE": "U", "NORAD_CAT_ID": 30803, "ELEMENT_SET_NO": 999, "REV_AT_EPOCH": 95862, "BSTAR": 0.0017208198, "MEAN_MOTION_DOT": 3.226e-05, "MEAN_MOTION_DDOT": 0}, "tle": {"line1": "1 30803U 99025AUM 25337.04134174  .00003226  00000+0  17208-2 0  9995", "line2": "2 30803  99.2471   9.9340 0107040 228.3304 161.5360 14.11169165958624"}}, "geometry": {"type": "Point", "coordinates": [7.826432188858181, 25.062642778147563]}}, {"type": "Feature", "properties": {"norad_id": 30804, "name": "FENGYUN 1C DEB", "group": "fengyun-1c-debris", "lat": -33.116386667181004, "lon": 50.058641883523215, "alt_km": 766.6497869550731, "timestamp": "2025-12-05T05:43:15.388293+00:00", "meta": {"OBJECT_NAME": "FENGYUN 1C DEB", "OBJECT_ID": "1999-025AUN", "EPOCH": "2025-12-04T03:35:57.514272", "MEAN_MOTION": 14.54535602, "ECCENTRICITY": 0.01852853, "INCLINATION": 98.8963, "RA_OF_ASC_NODE": 43.0368, "ARG_OF_PERICENTER": 216.62, "MEAN_ANOMALY": 171.9996, "EPHEMERIS_TYPE": 0, "CLASSIFICATION_TYPE": "U", "NORAD_CAT_ID": 30804, "ELEMENT_SET_NO": 999, "REV_AT_EPOCH": 99352, "BSTAR": 0.0010209379, "MEAN_MOTION_DOT": 5.418e-05, "MEAN_MOTION_DDOT": 0}, "tle": {"line1": "1 30804U 99025AUN 25338.14997123  .00005418  00000+0  10209-2 0  9998", "line2": "2 30804  98.8963  43.0368 0185285 216.6200 171.9996 14.54535602993525"}}, "geometry": {"type": "Point", "coordinates": [50.058641883523215, -33.116386667181004]}}, {"type": "Feature", "properties": {"norad_id": 30805, "name": "FENGYUN 1C DEB", "group": "fengyun-1c-debris", "lat": 66.84950523326303, "lon": 0.8347584893813048, "alt_km": 904.4255006352932, "timestamp": "2025-12-05T05:43:15.388303+00:00", "meta": {"OBJECT_NAME": "FENGYUN 1C DEB", "OBJECT_ID": "1999-025AUP", "EPOCH": "2025-12-04T08:54:41.533056", "MEAN_MOTION": 14.02866129, "ECCENTRICITY": 0.0069185, "INCLINATION": 98.8213, "RA_OF_ASC_NODE": 21.2901, "ARG_OF_PERICENTER": 308.0018, "MEAN_ANOMALY": 63.3763, "EPHEMERIS_TYPE": 0, "CLASSIFICATION_TYPE": "U", "NORAD_CAT_ID": 30805, "ELEMENT_SET_NO": 999, "REV_AT_EPOCH": 95843, "BSTAR": 0.0010461, "MEAN_MOTION_DOT": 1.612e-05, "MEAN_MOTION_DDOT": 0}, "tle": {"line1": "1 30805U 99025AUP 25338.37131404  .00001612  00000+0  10461-2 0  9998", "line2": "2 30805  98.8213  21.2901 0069185 308.0018  63.3763 14.02866129958439"}}, "geometry": {"type": "Point", "coordinates": [0.8347584893813048, 66.84950523326303]}}, {"type": "Feature", "properties": {"norad_id": 30806, "name": "FENGYUN 1C DEB", "group": "fengyun-1c-debris", "lat": -59.979439220062915, "lon": 170.2293352916741, "alt_km": 1003.9994582561176, "timestamp": "2025-12-05T05:43:15.388313+00:00", "meta": {"OBJECT_NAME": "FENGYUN 1C DEB", "OBJECT_ID": "1999-025AUQ", "EPOCH": "2025-12-03T21:37:34.154400", "MEAN_MOTION": 13.70396593, "ECCENTRICITY": 0.02687961, "INCLINATION": 99.0374, "RA_OF_ASC_NODE": 4.9586, "ARG_OF_PERICENTER": 153.5168, "MEAN_ANOMALY": 330.7129, "EPHEMERIS_TYPE": 0, "CLASSIFICATION_TYPE": "U", "NORAD_CAT_ID": 30806, "ELEMENT_SET_NO": 999, "REV_AT_EPOCH": 93574, "BSTAR": 0.0012333078, "MEAN_MOTION_DOT": 1.368e-05, "MEAN_MOTION_DDOT": 0}, "tle": {"line1": "1 30806U 99025AUQ 25337.90108975  .00001368  00000+0  12333-2 0  9992", "line2": "2 30806  99.0374   4.9586 0268796 153.5168 330.7129 13.70396593935749"}}, "geometry": {"type": "Point", "coordinates": [170.2293352916741, -59.979439220062915]}}, {"type": "Feature", "properties": {"norad_id": 30809, "name": "FENGYUN 1C DEB", "group": "fengyun-1c-debris", "lat": -79.58835458490934, "lon": -169.1480306950959, "alt_km": 789.8129244134334, "timestamp": "2025-12-05T05:43:15.388324+00:00", "meta": {"OBJECT_NAME": "FENGYUN 1C DEB", "OBJECT_ID": "1999-025AUT", "EPOCH": "2025-12-04T11:41:10.121280", "MEAN_MOTION": 14.29101276, "ECCENTRICITY": 0.0052463, "INCLINATION": 98.7905, "RA_OF_ASC_NODE": 67.4608, "ARG_OF_PERICENTER": 195.1897, "MEAN_ANOMALY": 164.7712, "EPHEMERIS_TYPE": 0, "CLASSIFICATION_TYPE": "U", "NORAD_CAT_ID": 30809, "ELEMENT_SET_NO": 999, "REV_AT_EPOCH": 96969, "BSTAR": 0.0045982, "MEAN_MOTION_DOT": 0.00011803, "MEAN_MOTION_DDOT": 0}, "tle": {"line1": "1 30809U 99025AUT 25338.48692270  .00011803  00000+0  45982-2 0  9996", "line2": "2 30809  98.7905  67.4608 0052463 195.1897 164.7712 14.29101276969691"}}, "geometry": {"type": "Point", "coordinates": [-169.1480306950959, -79.58835458490934]}}, {"type": "Feature", "properties": {"norad_id": 30810, "name": "FENGYUN 1C DEB", "group": "fengyun-1c-debris", "lat": -66.72591757340513, "lon": -49.23495390193384, "alt_km": 1016.0862959591559, "timestamp": "2025-12-05T05:43:15.388334+00:00", "meta": {"OBJECT_NAME": "FENGYUN 1C DEB", "OBJECT_ID": "1999-025AUU", "EPOCH": "2025-12-04T04:36:31.404096", "MEAN_MOTION": 14.04026481, "ECCENTRICITY": 0.0179764, "INCLINATION": 98.6633, "RA_OF_ASC_NODE": 150.5268, "ARG_OF_PERICENTER": 79.504, "MEAN_ANOMALY": 282.6326, "EPHEMERIS_TYPE": 0, "CLASSIFICATION_TYPE": "U", "NORAD_CAT_ID": 30810, "ELEMENT_SET_NO": 999, "REV_AT_EPOCH": 94263, "BSTAR": 0.0056567, "MEAN_MOTION_DOT": 0.00010303, "MEAN_MOTION_DDOT": 0}, "tle": {"line1": "1 30810U 99025AUU 25338.19203014  .00010303  00000+0  56567-2 0  9995", "line2": "2 30810  98.6633 150.5268 0179764  79.5040 282.6326 14.04026481942638"}}, "geometry": {"type": "Point", "coordinates": [-49.23495390193384, -66.72591757340513]}}]}